GLOBALSTAR M057         
1 25943U 99058A   25282.03622312 -.00000093  00000+0 -10921-5 0  9993
2 25943  52.0012  25.0976 0002172 234.9335 125.1311 12.24827376180886
GLOBALSTAR M059         
1 25944U 99058B   25282.19651586 -.00000108  00000+0 -27436-3 0  9990
2 25944  52.0009 258.7401 0000295  89.1867 284.2784 11.99988277587730
GLOBALSTAR M056         
1 25945U 99058C   25282.17299734 -.00000083  00000+0  52513-4 0  9998
2 25945  51.9954 257.8405 0001300  46.4548  37.8792 12.04779328176368
GLOBALSTAR M031         
1 25946U 99058D   25282.02612968  .00000034  00000+0  12682-2 0  9997
2 25946  51.9939 143.7527 0002270  61.6545  86.7376 12.16041651178393
GLOBALSTAR M039         
1 25961U 99062A   25282.02576823 -.00000099  00000+0  26694-4 0  9990
2 25961  51.9841 281.9851 0002324 239.0447 121.0192 12.62333290194592
GLOBALSTAR M034         
1 25962U 99062B   25282.21479108 -.00000081  00000+0  48937-5 0  9996
2 25962  51.9868  74.9770 0013276 255.4022 276.2931 11.79449085151843
GLOBALSTAR M029         
1 25963U 99062C   25282.07989676 -.00000055  00000+0  39235-3 0  9997
2 25963  51.9782 146.9935 0002666   3.8883 152.1655 11.99901960182793
GLOBALSTAR M061         
1 25964U 99062D   25282.18622426 -.00000067  00000+0  21120-3 0  9994
2 25964  51.9781 260.6037 0005672 177.2844 196.5265 11.76777343134600
